ONEWEB-0205             
1 48226U 21031S   25352.43413334 -.00000231  00000+0 -65854-3 0  9999
2 48226  87.8999 325.7055 0001590  84.2078 275.9233 13.14504618224524
ONEWEB-0206             
1 48227U 21031T   25352.48330709 -.00000069  00000+0 -22051-3 0  9990
2 48227  87.9007 325.6872 0002038  81.1564 278.9797 13.14502556224488
ONEWEB-0182             
1 48228U 21031U   25352.40242277  .00000017  00000+0  10219-4 0  9990
2 48228  87.8984 325.7308 0001791  91.6855 268.4480 13.14504038224683
ONEWEB-0186             
1 48229U 21031V   25352.48963704 -.00000102  00000+0 -31005-3 0  9996
2 48229  87.9001 325.6911 0001658  84.0014 276.1305 13.14504128224647
ONEWEB-0181             
1 48230U 21031W   25352.46743629  .00000277  00000+0  71185-3 0  9992
2 48230  87.8985 325.7490 0001615  79.8925 280.2387 13.14503919224494
ONEWEB-0188             
1 48231U 21031X   25352.42936588 -.00000250  00000+0 -70801-3 0  9994
2 48231  87.8983 325.7535 0001776  85.8728 274.2605 13.14504142224393
ONEWEB-0220             
1 48232U 21031Y   25352.46902239  .00000200  00000+0  50379-3 0  9996
2 48232  87.9000 325.6945 0001571  88.6774 271.4536 13.14504259224665
ONEWEB-0165             
1 48233U 21031Z   25352.42145488 -.00000212  00000+0 -60686-3 0  9995
2 48233  87.8985 325.7298 0001636  73.9814 286.1496 13.14504543224612
